0 IRIDIUM 159
1 43578U 18061K   24007.70410314  .00000307  00000-0  10249-3 0  9995
2 43578  86.3949  69.2852 0002270  98.1291 262.0162 14.34217985285605
0 IRIDIUM 180
1 43922U 19002A   24008.05244017  .00000128  00000-0  38514-4 0  9995
2 43922  86.3970   6.0139 0002196  93.6397 266.5050 14.34215463261308
0 IRIDIUM 176
1 43923U 19002B   24008.03446466  .00001198  00000-0  18609-3 0  9996
2 43923  86.6099   6.0517 0002510  90.4992 269.6512 14.72240585268130
0 IRIDIUM 168
1 43924U 19002C   24008.11587448  .00000342  00000-0  11519-3 0  9995
2 43924  86.3972   6.0395 0002219  92.7394 267.4056 14.34219060261256
0 IRIDIUM 173
1 43925U 19002D   24008.45203070  .00000347  00000-0  11675-3 0  9997
2 43925  86.3970   5.8241 0002326  91.2734 268.8728 14.34219454261295
0 IRIDIUM 169
1 43926U 19002E   24008.10369106  .00000392  00000-0  12167-3 0  9990
2 43926  86.4211  37.5763 0004531  63.5528 296.6134 14.38619741262118
0 IRIDIUM 172
1 43927U 19002F   24007.95731178  .00000348  00000-0  11726-3 0  9996
2 43927  86.3970   6.0363 0002134  91.9128 268.2312 14.34218819261226
0 IRIDIUM 175
1 43928U 19002G   24007.96048160  .00001265  00000-0  19667-3 0  9991
2 43928  86.1518 348.3464 0002471  87.2880 272.8620 14.72242686268113
